H1 CPF  1  HTS 2005 12  3 12   837    lageos1       NONE
H2  7603901 1155     8820 2005 12 03  0  0  0 2005 12 11  0  0  0   300 1 1  0 0 0
H5  0.2510 
H9 
10 0 53712  28500.00000  0       4233118.211        810396.810     -11552409.576
20 0         2357.562912        -5470.872996          474.564730
10 0 53712  28800.00000  0       4862710.095       -847635.504     -11300207.040
20 0         1832.543774        -5561.679946         1204.085422
10 0 53712  29100.00000  0       5329113.900      -2513880.505     -10832258.431
20 0         1272.242880        -5525.278665         1910.618862
10 0 53712  29400.00000  0       5624115.332      -4150012.967     -10157463.639
20 0          692.547684        -5361.079718         2580.894403
10 0 53712  29700.00000  0       5744323.469      -5717978.046      -9288613.972
20 0          109.659073        -5071.476900         3202.276623
10 0 53712  30000.00000  0       5691203.854      -7180884.759      -8242168.864
20 0         -460.315333        -4661.826841         3762.982346
10 0 53712  30300.00001  0       5470989.544      -8503883.846      -7037968.601
20 0        -1001.766858        -4140.365025         4252.289816
10 0 53712  30600.00000  0       5094471.589      -9655010.742      -5698885.795
20 0        -1499.982462        -3518.057044         4660.737368
10 0 53712  30900.00000  0       4576672.909     -10605974.153      -4250419.235
20 0        -1941.524041        -2808.384752         4980.308247
10 0 53712  31200.00000  0       3936412.098     -11332870.820      -2720234.883
20 0        -2314.581320        -2027.068289         5204.597448
10 0 53712  31500.00000  0       3195766.504     -11816807.593      -1137660.107
20 0        -2609.288896        -1191.726834         5328.955815
10 0 53712  31800.00000  0       2379446.757     -12044413.155        466861.289
20 0        -2817.997973         -321.483222         5350.606395
10 0 53712  32100.00000  0       1514097.720     -12008223.626       2062344.165
20 0        -2935.493728          563.480034         5268.728283
10 0 53712  32400.00000  0        627543.400     -11706928.885       3617856.892
20 0        -2959.150276         1442.403468         5084.503692
10 0 53712  32700.00000  0       -252004.421     -11145469.729       5103124.355
20 0        -2889.016611         2294.460235         4801.124843
10 0 53712  33000.00001  0      -1096752.365     -10334979.820       6489126.704
20 0        -2727.828844         3099.278859         4423.758416
10 0 53712  33300.00000  0      -1880123.928      -9292570.676       7748680.945
20 0        -2480.946333         3837.464358         3959.466688
10 0 53712  33600.00000  0      -2577527.357      -8040962.470       8856992.428
20 0        -2156.211884         4491.102526         3417.085919
10 0 53712  33900.00000  0      -3167070.514      -6607967.955       9792163.656
20 0        -1763.738751         5044.232334         2807.063899
10 0 53712  34200.00000  0      -3630201.483      -5025841.248      10535648.622
20 0        -1315.629711         5483.272241         2141.259769
10 0 53712  34500.00000  0      -3952255.627      -3330507.257      11072641.933
20 0         -825.635754         5797.387518         1432.710359
10 0 53712  34800.00000  0      -4122892.373      -1560691.179      11392393.446
20 0         -308.763933         5978.787520          695.368063
10 0 53712  35100.00000  0      -4136408.089        243029.520      11488440.684
20 0          219.154478         6022.943729          -56.184153
10 0 53712  35400.00000  0      -3991915.016       2039225.720      11358753.101
20 0          741.923014         5928.721484         -807.034359
10 0 53712  35700.00001  0      -3693380.092       3786643.250      11005784.209
20 0         1243.452670         5698.420825        -1542.253132
10 0 53712  36000.00000  0      -3249521.695       5445227.802      10436429.654
20 0         1708.234076         5337.724399        -2247.207923
10 0 53712  36300.00000  0      -2673566.603       6977120.331       9661891.447
20 0         2121.794830         4855.552932        -2907.873109
10 0 53712  36600.00000  0      -1982873.759       8347595.562       8697450.752
20 0         2471.127811         4263.831401        -3511.128306
10 0 53712  36900.00000  0      -1198435.600       9525917.691       7562153.889
20 0         2745.076902         3577.171893        -4045.037332
10 0 53712  37200.00000  0       -344271.627      10486089.507       6278418.480
20 0         2934.667745         2812.482092        -4499.100477
10 0 53712  37500.00000  0        553267.649      11207474.335       4871568.775
20 0         3033.372862         1988.510942        -4864.473280
10 0 53712  37800.00000  0       1466265.355      11675273.945       3369311.127
20 0         3037.302611         1125.345314        -5134.145820
10 0 53712  38100.00000  0       2366048.284      11880850.081       1801162.252
20 0         2945.315987          243.873574        -5303.077455
10 0 53712  38400.00001  0       3224017.742      11821882.273        197844.211
20 0         2759.048434         -634.766425        -5368.283536
10 0 53712  38700.00000  0       4012476.310      11502359.960      -1409339.218
20 0         2482.857199        -1489.736916        -5328.872714
10 0 53712  39000.00000  0       4705426.286      10932412.292      -2989130.023
20 0         2123.688007        -2301.030106        -5186.035620
10 0 53712  39300.00000  0       5279317.102      10127983.875      -4510933.052
20 0         1690.869493        -3049.962838        -4942.987480
10 0 53712  39600.00000  0       5713721.284       9110369.109      -5945409.467
20 0         1195.844016        -3719.622635        -4604.868664
10 0 53712  39900.00000  0       5991921.390       7905621.404      -7265034.684
20 0          651.845151        -4295.254258        -4178.608335
10 0 53712  40200.00000  0       6101393.612       6543856.371      -8444610.621
20 0           73.533290        -4764.578887        -3672.757269
10 0 53712  40500.00000  0       6034177.248       5058470.005      -9461723.985
20 0         -523.398914        -5118.041144        -3097.296309
10 0 53712  40800.00000  0       5787122.721       3485293.843     -10297144.215
20 0        -1122.639818        -5348.982091        -2463.426710
10 0 53712  41100.00001  0       5362014.149       1861709.304     -10935156.546
20 0        -1707.680110        -5453.738713        -1783.348069
10 0 53712  41400.00000  0       4765565.544        225742.908     -11363827.206
20 0        -2262.232506        -5431.672310        -1070.028739
10 0 53712  41700.00000  0       4009292.413      -1384836.800     -11575199.107
20 0        -2770.641321        -5285.129575         -336.972582
10 0 53712  42000.00000  0       3109262.959      -2933401.120     -11565417.375
20 0        -3218.274453        -5019.340814          402.015160
10 0 53712  42300.00000  0       2085735.150      -4385303.687     -11334784.753
20 0        -3591.891177        -4642.260048         1133.060971
10 0 53712  42600.00000  0        962687.850      -5708666.862     -10887747.395
20 0        -3879.979705        -4164.351655         1842.453839
10 0 53712  42900.00000  0       -232744.080      -6875096.668     -10232811.896
20 0        -4073.058785        -3598.328125         2516.872778
10 0 53712  43200.00000  0      -1470919.039      -7860312.274      -9382394.672
20 0        -4163.937656        -2958.843359         3143.610069
10 0 53712  43500.00000  0      -2720408.993      -8644677.376      -8352605.182
20 0        -4147.928699        -2262.146166         3710.788881
10 0 53712  43800.00001  0      -3948775.758      -9213622.278      -7162964.921
20 0        -4023.007129        -1525.698948         4207.573398
10 0 53712  44100.00000  0      -5123386.568      -9557947.061      -5836064.826
20 0        -3789.912219         -767.767347         4624.368805
10 0 53712  44400.00000  0      -6212250.590      -9673998.126      -4397164.621
20 0        -3452.185023           -6.987640         4953.007738
10 0 53712  44700.00000  0      -7184856.699      -9563712.604      -2873738.765
20 0        -3016.138376          738.080102         5186.919109
10 0 53712  45000.00000  0      -8012991.706      -9234527.732      -1294974.965
20 0        -2490.756261         1449.403738         5321.274637
10 0 53712  45300.00000  0      -8671517.627      -8699155.281        308767.302
20 0        -1887.521385         2109.925106         5353.108176
10 0 53712  45600.00000  0      -9139086.571      -7975224.467       1906529.384
20 0        -1220.172011         2703.988803         5281.403024
10 0 53712  45900.00000  0      -9398772.446      -7084800.320       3467346.890
20 0         -504.391495         3217.741612         5107.142851
10 0 53712  46200.00000  0      -9438600.171      -6053788.156       4960852.479
20 0          242.563437         3639.490396         4833.322718
10 0 53712  46500.00001  0      -9251955.216      -4911238.373       6357875.674
20 0         1002.287094         3960.006910         4464.917818
10 0 53712  46800.00000  0      -8837859.239      -3688569.063       7631026.792
20 0         1755.691131         4172.769223         4008.808902
10 0 53712  47100.00000  0      -8201101.116      -2418726.809       8755252.050
20 0         2483.500091         4274.131235         3473.664791
10 0 53712  47400.00000  0      -7352216.651      -1135308.218       9708347.188
20 0         3166.762217         4263.414017         2869.783778
10 0 53712  47700.00000  0      -6307314.579        128333.721      10471417.721
20 0         3787.360878         4142.915273         2208.896970
10 0 53712  48000.00000  0      -5087750.923       1339973.664      11029274.967
20 0         4328.511679         3917.835804         1503.937608
10 0 53712  48300.00000  0      -3719658.197       2469363.589      11370758.392
20 0         4775.230594         3596.124511          768.781318
99